{"type":"FeatureCollection","features":[{"type":"Feature","id":12272,"geometry":{"type":"Polygon","coordinates":[[[29.348236083984489,-1.7019091844558147],[29.348300933838004,-1.7023755311965942],[29.348367691040039,-1.7028336524963379],[29.348501205444393,-1.7037746906280518],[29.348701477050781,-1.7052876949310303],[29.348726272583008,-1.7054630517959595],[29.34879302978527,-1.7059732675552368],[29.348890304565487,-1.7066826820372967],[29.349193572998104,-1.7065223455429077],[29.349273681640625,-1.7064663171768188],[29.349393844604492,-1.7063807249069214],[29.349510192871151,-1.706264138221627],[29.34956169128418,-1.7061642408370403],[29.349639892578125,-1.7057816982269287],[29.349668502807674,-1.7056394815444946],[29.349744796752873,-1.7053979635238647],[29.349802017212028,-1.705081582069397],[29.349903106689453,-1.7047151327133179],[29.349977493286246,-1.7042070627211956],[29.350061416625977,-1.7038489580153851],[29.350223541259879,-1.7032208442687988],[29.34995269775402,-1.7030911445617107],[29.349885940551758,-1.7030733823776245],[29.349794387817496,-1.703049421310368],[29.349143981933651,-1.7025581598281292],[29.3485107421875,-1.7020584344863892],[29.348236083984489,-1.7019091844558147]]]},"properties":{"FID":12272,"ID_0":189,"ISO":"RWA","NAME_0":"Rwanda","ID_1":4,"NAME_1":"Iburengerazuba","ID_2":25,"NAME_2":"Rubavu","ID_3":346,"NAME_3":"Kanama","ID_4":1787,"NAME_4":"Mahoko","ID_5":12273,"NAME_5":"Shusho","TYPE_5":"Village","ENGTYPE_5":"Village"}}]}